IRIDIUM 166             
1 43570U 18061B   25273.61660042  .00000464  00000+0  15869-3 0  9994
2 43570  86.4033 165.2405 0002187  78.0453 282.0988 14.34218299376199
IRIDIUM 158             
1 43571U 18061C   25273.65465749  .00000240  00000+0  78686-4 0  9995
2 43571  86.4033 165.2342 0002286  86.9292 273.2165 14.34218308376166
IRIDIUM 165             
1 43572U 18061D   25273.61025597  .00000552  00000+0  18991-3 0  9993
2 43572  86.4035 165.2942 0002127  79.9299 280.2137 14.34215802376183
IRIDIUM 155             
1 43573U 18061E   25273.64197313  .00000131  00000+0  39851-4 0  9995
2 43573  86.4029 165.1631 0002319  83.1082 277.0378 14.34218242376150
IRIDIUM 154             
1 43574U 18061F   25273.41363405  .00000406  00000+0  13774-3 0  9998
2 43574  86.4035 165.3786 0002064  82.0603 278.0828 14.34220642376175
IRIDIUM 163             
1 43575U 18061G   25273.46438032  .00000151  00000+0  46884-4 0  9999
2 43575  86.4032 165.2814 0002182  88.9481 271.1965 14.34218391376156
IRIDIUM 156             
1 43576U 18061H   25273.64830509  .00000498  00000+0  17070-3 0  9993
2 43576  86.4035 165.2114 0002394  78.8214 281.3251 14.34216331376175
IRIDIUM 164             
1 43577U 18061J   25273.62928748 -.00000033  00000+0 -18737-4 0  9994
2 43577  86.4034 165.2553 0002004  77.0249 283.1171 14.34217969376213
